STARLINK-36822          
1 67909U 26036F   26070.91667824 -.01869200  00000+0 -13143-1 0  9996
2 67909  42.9992 236.1443 0001567 273.8663  66.3924 15.76387392  4000
STARLINK-36847          
1 67910U 26036G   26070.91667824 -.01862967  00000+0 -13606-1 0  9995
2 67910  42.9993 236.1444 0001712 274.5976  65.4501 15.75522979  4003
STARLINK-36736          
1 67911U 26036H   26070.91626802  .00298043  00000+0  13628-2 0  9997
2 67911  42.9980 236.0884 0001815 265.6646  94.4019 15.82125629  4023
STARLINK-36676          
1 67912U 26036J   26070.91553127  .00029204  00000+0  14097-3 0  9990
2 67912  42.9980 236.0836 0002243 267.2904  92.7711 15.81980932  4027
STARLINK-36690          
1 67913U 26036K   26070.91478141  .00258188  00000+0  11894-2 0  9999
2 67913  42.9982 236.0766 0001837   5.2723 354.8168 15.82071128  4026
STARLINK-36724          
1 67914U 26036L   26070.85014171  .00479839  00000+0  21409-2 0  9993
2 67914  42.9983 236.4507 0001742 327.9257  32.1509 15.82180836  4017
STARLINK-36723          
1 67915U 26036M   26070.91402297  .00305036  00000+0  13936-2 0  9994
2 67915  42.9980 236.0700 0001972 247.4679 112.5985 15.82125098  4026
STARLINK-36721          
1 67916U 26036N   26070.91667824 -.00155686  00000+0 -74973-3 0  9999
2 67916  42.9993 236.0354 0001566 271.6681 112.0680 15.82027987  4000
STARLINK-36722          
1 67917U 26036P   26069.83851444  .00531298  00000+0  23595-2 0  9990
2 67917  42.9984 242.6288 0002027 314.2120  45.8585 15.82148661  3857
STARLINK-36341          
1 67918U 26036Q   26068.89018697  .00777423  00000+0  33126-2 0  9994
2 67918  42.9987 248.4207 0002259 306.3888  53.6775 15.82409136  3705
STARLINK-36663          
1 67919U 26036R   26070.91102511  .00224338  00000+0  10362-2 0  9999
2 67919  42.9990 236.0461 0001803 272.4205  87.6461 15.82104882  4020
STARLINK-36375          
1 67920U 26036S   26069.83626243  .00302702  00000+0  13843-2 0  9992
2 67920  42.9990 242.6117 0000690 277.9892  82.0901 15.82109736  3859
